CCSDS_OMM_VERS = 2.0
CREATION_DATE  = 
ORIGINATOR     = 

OBJECT_NAME    = H-2A R/B
OBJECT_ID      = 2006-002B
CENTER_NAME    = EARTH
REF_FRAME      = TEME
TIME_SYSTEM    = UTC
MEAN_ELEMENT_THEORY = SGP/SGP4

EPOCH          = 2026-03-15T06:48:35.163648
MEAN_MOTION    = 15.16555693
ECCENTRICITY   = .005204
INCLINATION    = 98.2413
RA_OF_ASC_NODE = 221.7893
ARG_OF_PERICENTER = 221.8391
MEAN_ANOMALY   = 137.8857

EPHEMERIS_TYPE = 0
CLASSIFICATION_TYPE = U
NORAD_CAT_ID   = 28932
ELEMENT_SET_NO = 999
REV_AT_EPOCH   = 9528
BSTAR          = .62527345E-3
MEAN_MOTION_DOT = .12561E-3
MEAN_MOTION_DDOT = 0

CCSDS_OMM_VERS = 2.0
CREATION_DATE  = 
ORIGINATOR     = 

OBJECT_NAME    = RESURS-DK 1
OBJECT_ID      = 2006-021A
CENTER_NAME    = EARTH
REF_FRAME      = TEME
TIME_SYSTEM    = UTC
MEAN_ELEMENT_THEORY = SGP/SGP4

EPOCH          = 2026-03-15T03:44:31.750656
MEAN_MOTION    = 15.12788460
ECCENTRICITY   = .00013085
INCLINATION    = 69.9324
RA_OF_ASC_NODE = 222.8820
ARG_OF_PERICENTER = 155.3382
MEAN_ANOMALY   = 204.7847

EPHEMERIS_TYPE = 0
CLASSIFICATION_TYPE = U
NORAD_CAT_ID   = 29228
ELEMENT_SET_NO = 999
REV_AT_EPOCH   = 8835
BSTAR          = .23516784E-3
MEAN_MOTION_DOT = .4031E-4
MEAN_MOTION_DDOT = 0

CCSDS_OMM_VERS = 2.0
CREATION_DATE  = 
ORIGINATOR     = 

OBJECT_NAME    = CZ-4B R/B
OBJECT_ID      = 2006-046C
CENTER_NAME    = EARTH
REF_FRAME      = TEME
TIME_SYSTEM    = UTC
MEAN_ELEMENT_THEORY = SGP/SGP4

EPOCH          = 2026-03-15T02:01:19.482528
MEAN_MOTION    = 15.16965237
ECCENTRICITY   = .00317791
INCLINATION    = 97.5589
RA_OF_ASC_NODE = 118.9789
ARG_OF_PERICENTER = 247.7675
MEAN_ANOMALY   = 112.0186

EPHEMERIS_TYPE = 0
CLASSIFICATION_TYPE = U
NORAD_CAT_ID   = 29507
ELEMENT_SET_NO = 999
REV_AT_EPOCH   = 6086
BSTAR          = .29002289E-3
MEAN_MOTION_DOT = .5729E-4
MEAN_MOTION_DDOT = 0

CCSDS_OMM_VERS = 2.0
CREATION_DATE  = 
ORIGINATOR     = 

OBJECT_NAME    = CZ-2C R/B
OBJECT_ID      = 2007-010B
CENTER_NAME    = EARTH
REF_FRAME      = TEME
TIME_SYSTEM    = UTC
MEAN_ELEMENT_THEORY = SGP/SGP4

EPOCH          = 2026-03-15T06:59:41.931456
MEAN_MOTION    = 14.20248432
ECCENTRICITY   = .00578479
INCLINATION    = 98.3983
RA_OF_ASC_NODE = 187.2895
ARG_OF_PERICENTER = 278.0197
MEAN_ANOMALY   = 81.4420

EPHEMERIS_TYPE = 0
CLASSIFICATION_TYPE = U
NORAD_CAT_ID   = 31114
ELEMENT_SET_NO = 999
REV_AT_EPOCH   = 98051
BSTAR          = .79355994E-4
MEAN_MOTION_DOT = .131E-5
MEAN_MOTION_DDOT = 0

CCSDS_OMM_VERS = 2.0
CREATION_DATE  = 
ORIGINATOR     = 

OBJECT_NAME    = COSMO-SKYMED 1
OBJECT_ID      = 2007-023A
CENTER_NAME    = EARTH
REF_FRAME      = TEME
TIME_SYSTEM    = UTC
MEAN_ELEMENT_THEORY = SGP/SGP4

EPOCH          = 2026-03-15T06:44:22.581888
MEAN_MOTION    = 14.96587730
ECCENTRICITY   = .00016153
INCLINATION    = 97.8883
RA_OF_ASC_NODE = 265.3581
ARG_OF_PERICENTER = 94.0965
MEAN_ANOMALY   = 266.0441

EPHEMERIS_TYPE = 0
CLASSIFICATION_TYPE = U
NORAD_CAT_ID   = 31598
ELEMENT_SET_NO = 999
REV_AT_EPOCH   = 1574
BSTAR          = .43552556E-3
MEAN_MOTION_DOT = .49E-4
MEAN_MOTION_DDOT = 0

CCSDS_OMM_VERS = 2.0
CREATION_DATE  = 
ORIGINATOR     = 

OBJECT_NAME    = COSMOS 2428
OBJECT_ID      = 2007-029A
CENTER_NAME    = EARTH
REF_FRAME      = TEME
TIME_SYSTEM    = UTC
MEAN_ELEMENT_THEORY = SGP/SGP4

EPOCH          = 2026-03-15T06:27:31.725216
MEAN_MOTION    = 14.12947132
ECCENTRICITY   = .00093347
INCLINATION    = 70.9439
RA_OF_ASC_NODE = 191.6328
ARG_OF_PERICENTER = 271.4410
MEAN_ANOMALY   = 88.5642

EPHEMERIS_TYPE = 0
CLASSIFICATION_TYPE = U
NORAD_CAT_ID   = 31792
ELEMENT_SET_NO = 999
REV_AT_EPOCH   = 96488
BSTAR          = .25564108E-4
MEAN_MOTION_DOT = 0
MEAN_MOTION_DDOT = 0

CCSDS_OMM_VERS = 2.0
CREATION_DATE  = 
ORIGINATOR     = 

OBJECT_NAME    = SL-16 R/B
OBJECT_ID      = 2007-029B
CENTER_NAME    = EARTH
REF_FRAME      = TEME
TIME_SYSTEM    = UTC
MEAN_ELEMENT_THEORY = SGP/SGP4

EPOCH          = 2026-03-15T06:56:57.508800
MEAN_MOTION    = 14.14835763
ECCENTRICITY   = .00022706
INCLINATION    = 70.9757
RA_OF_ASC_NODE = 160.6144
ARG_OF_PERICENTER = 276.1579
MEAN_ANOMALY   = 140.4618

EPHEMERIS_TYPE = 0
CLASSIFICATION_TYPE = U
NORAD_CAT_ID   = 31793
ELEMENT_SET_NO = 999
REV_AT_EPOCH   = 96616
BSTAR          = .16063908E-3
MEAN_MOTION_DOT = .262E-5
MEAN_MOTION_DDOT = 0

CCSDS_OMM_VERS = 2.0
CREATION_DATE  = 
ORIGINATOR     = 

OBJECT_NAME    = KORONAS-FOTON
OBJECT_ID      = 2009-003A
CENTER_NAME    = EARTH
REF_FRAME      = TEME
TIME_SYSTEM    = UTC
MEAN_ELEMENT_THEORY = SGP/SGP4

EPOCH          = 2026-03-15T06:36:22.417344
MEAN_MOTION    = 15.43456746
ECCENTRICITY   = .00116594
INCLINATION    = 82.4274
RA_OF_ASC_NODE = 270.0698
ARG_OF_PERICENTER = 131.1293
MEAN_ANOMALY   = 229.0963

EPHEMERIS_TYPE = 0
CLASSIFICATION_TYPE = U
NORAD_CAT_ID   = 33504
ELEMENT_SET_NO = 999
REV_AT_EPOCH   = 94660
BSTAR          = .32416858E-3
MEAN_MOTION_DOT = .14582E-3
MEAN_MOTION_DDOT = 0

CCSDS_OMM_VERS = 2.0
CREATION_DATE  = 
ORIGINATOR     = 

OBJECT_NAME    = CZ-2C R/B
OBJECT_ID      = 2011-030B
CENTER_NAME    = EARTH
REF_FRAME      = TEME
TIME_SYSTEM    = UTC
MEAN_ELEMENT_THEORY = SGP/SGP4

EPOCH          = 2026-03-15T03:23:58.515072
MEAN_MOTION    = 14.81245756
ECCENTRICITY   = .00519131
INCLINATION    = 97.8548
RA_OF_ASC_NODE = 31.2954
ARG_OF_PERICENTER = 334.2508
MEAN_ANOMALY   = 35.8554

EPHEMERIS_TYPE = 0
CLASSIFICATION_TYPE = U
NORAD_CAT_ID   = 37731
ELEMENT_SET_NO = 999
REV_AT_EPOCH   = 79090
BSTAR          = .24704626E-3
MEAN_MOTION_DOT = .1915E-4
MEAN_MOTION_DDOT = 0

CCSDS_OMM_VERS = 2.0
CREATION_DATE  = 
ORIGINATOR     = 

OBJECT_NAME    = H-2A R/B
OBJECT_ID      = 2012-025E
CENTER_NAME    = EARTH
REF_FRAME      = TEME
TIME_SYSTEM    = UTC
MEAN_ELEMENT_THEORY = SGP/SGP4

EPOCH          = 2026-03-15T03:34:53.096160
MEAN_MOTION    = 14.95213818
ECCENTRICITY   = .00432426
INCLINATION    = 98.4734
RA_OF_ASC_NODE = 41.6328
ARG_OF_PERICENTER = 296.0019
MEAN_ANOMALY   = 63.6749

EPHEMERIS_TYPE = 0
CLASSIFICATION_TYPE = U
NORAD_CAT_ID   = 38341
ELEMENT_SET_NO = 999
REV_AT_EPOCH   = 74903
BSTAR          = .31707901E-3
MEAN_MOTION_DOT = .3481E-4
MEAN_MOTION_DDOT = 0

CCSDS_OMM_VERS = 2.0
CREATION_DATE  = 
ORIGINATOR     = 

OBJECT_NAME    = SHIJIAN-16 (SJ-16)
OBJECT_ID      = 2013-057A
CENTER_NAME    = EARTH
REF_FRAME      = TEME
TIME_SYSTEM    = UTC
MEAN_ELEMENT_THEORY = SGP/SGP4

EPOCH          = 2026-03-15T07:51:17.721216
MEAN_MOTION    = 14.92377386
ECCENTRICITY   = .0015357
INCLINATION    = 74.9731
RA_OF_ASC_NODE = 174.4161
ARG_OF_PERICENTER = 97.7375
MEAN_ANOMALY   = 262.5558

EPHEMERIS_TYPE = 0
CLASSIFICATION_TYPE = U
NORAD_CAT_ID   = 39358
ELEMENT_SET_NO = 999
REV_AT_EPOCH   = 67234
BSTAR          = .38225548E-3
MEAN_MOTION_DOT = .3894E-4
MEAN_MOTION_DDOT = 0

CCSDS_OMM_VERS = 2.0
CREATION_DATE  = 
ORIGINATOR     = 

OBJECT_NAME    = SL-4 R/B
OBJECT_ID      = 2014-021B
CENTER_NAME    = EARTH
REF_FRAME      = TEME
TIME_SYSTEM    = UTC
MEAN_ELEMENT_THEORY = SGP/SGP4

EPOCH          = 2026-03-14T22:51:44.802432
MEAN_MOTION    = 15.39367433
ECCENTRICITY   = .00970538
INCLINATION    = 51.6066
RA_OF_ASC_NODE = 311.6008
ARG_OF_PERICENTER = 122.1840
MEAN_ANOMALY   = 238.8602

EPHEMERIS_TYPE = 0
CLASSIFICATION_TYPE = U
NORAD_CAT_ID   = 39679
ELEMENT_SET_NO = 999
REV_AT_EPOCH   = 65708
BSTAR          = .38194554E-3
MEAN_MOTION_DOT = .17476E-3
MEAN_MOTION_DDOT = 0

