H-2A R/B                
1 28932U 06002B   26074.28374032  .00012561  00000+0  62527-3 0  9999
2 28932  98.2413 221.7893 0052040 221.8391 137.8857 15.16555693 95281
RESURS-DK 1             
1 29228U 06021A   26074.15592304  .00004031  00000+0  23517-3 0  9998
2 29228  69.9324 222.8820 0001308 155.3382 204.7847 15.12788460 88359
CZ-4B R/B               
1 29507U 06046C   26074.08425327  .00005729  00000+0  29002-3 0  9997
2 29507  97.5589 118.9789 0031779 247.7675 112.0186 15.16965237 60860
CZ-2C R/B               
1 31114U 07010B   26074.29145754  .00000131  00000+0  79356-4 0  9992
2 31114  98.3983 187.2895 0057847 278.0197  81.4420 14.20248432980519
COSMO-SKYMED 1          
1 31598U 07023A   26074.28081692  .00004900  00000+0  43553-3 0  9998
2 31598  97.8883 265.3581 0001615  94.0965 266.0441 14.96587730 15747
COSMOS 2428             
1 31792U 07029A   26074.26911719  .00000000  00000+0  25564-4 0  9990
2 31792  70.9439 191.6328 0009334 271.4410  88.5642 14.12947132964886
SL-16 R/B               
1 31793U 07029B   26074.28955450  .00000262  00000+0  16064-3 0  9997
2 31793  70.9757 160.6144 0002270 276.1579 140.4618 14.14835763966164
KORONAS-FOTON           
1 33504U 09003A   26074.27525946  .00014582  00000+0  32417-3 0  9995
2 33504  82.4274 270.0698 0011659 131.1293 229.0963 15.43456746946609
CZ-2C R/B               
1 37731U 11030B   26074.14164948  .00001915  00000+0  24705-3 0  9998
2 37731  97.8548  31.2954 0051913 334.2508  35.8554 14.81245756790900
H-2A R/B                
1 38341U 12025E   26074.14922565  .00003481  00000+0  31708-3 0  9999
2 38341  98.4734  41.6328 0043242 296.0019  63.6749 14.95213818749032
SHIJIAN-16 (SJ-16)      
1 39358U 13057A   26074.32728844  .00003894  00000+0  38226-3 0  9998
2 39358  74.9731 174.4161 0015357  97.7375 262.5558 14.92377386672349
SL-4 R/B                
1 39679U 14021B   26073.95260188  .00017476  00000+0  38195-3 0  9992
2 39679  51.6066 311.6008 0097053 122.1840 238.8602 15.39367433657080
